start=new Date('2022-10-20T00:00:00.000Z').valueOf();
sats=[{"MEAN_MOTION":"15.08839339","TIME_SYSTEM":"UTC","ELEMENT_SET_NO":"999","LAUNCH_DATE":"2022-04-29","REF_FRAME":"TEME","OBJECT_TYPE":"PAYLOAD","FILE":"3623062","CENTER_NAME":"EARTH","MEAN_MOTION_DDOT":"0.0000000000000","PERIAPSIS":"538.234","PERIOD":"95.438","TLE_LINE2":"2 52331  53.2178   3.1659 0002188  33.2154 326.8975 15.08839339 28866","APOAPSIS":"541.261","OBJECT_ID":"2022-045A","OBJECT_NAME":"STARLINK-3889","MEAN_ANOMALY":"326.8975","MEAN_MOTION_DOT":"0.00001725","EPOCH":"2022-10-19T11:33:39.396672","ECCENTRICITY":"0.00021880","EPHEMERIS_TYPE":"0","REV_AT_EPOCH":"2886","DECAY_DATE":null,"SEMIMAJOR_AXIS":"6917.882","INCLINATION":"53.2178","CLASSIFICATION_TYPE":"U","NORAD_CAT_ID":"52331","COUNTRY_CODE":"US","ARG_OF_PERICENTER":"33.2154","BSTAR":"0.00012649000000","GP_ID":"215582447","SITE":"AFETR","RCS_SIZE":"LARGE","TLE_LINE1":"1 52331U 22045A   22292.48170598  .00001725  00000-0  12649-3 0  9996","MEAN_ELEMENT_THEORY":"SGP4","RA_OF_ASC_NODE":"3.1659"},{"ELEMENT_SET_NO":"999","LAUNCH_DATE":"2022-04-29","OBJECT_TYPE":"PAYLOAD","REF_FRAME":"TEME","FILE":"3623738","CENTER_NAME":"EARTH","MEAN_MOTION":"15.08834433","TIME_SYSTEM":"UTC","APOAPSIS":"541.434","OBJECT_ID":"2022-045B","OBJECT_NAME":"STARLINK-3831","MEAN_ANOMALY":"330.8946","MEAN_MOTION_DOT":"-0.00000414","MEAN_MOTION_DDOT":"0.0000000000000","PERIOD":"95.438","PERIAPSIS":"538.090","TLE_LINE2":"2 52332  53.2184   2.8096 0002417  29.2181 330.8946 15.08834433 28879","REV_AT_EPOCH":"2887","SEMIMAJOR_AXIS":"6917.897","DECAY_DATE":null,"INCLINATION":"53.2184","EPOCH":"2022-10-19T13:24:55.630080","ECCENTRICITY":"0.00024170","EPHEMERIS_TYPE":"0","SITE":"AFETR","RCS_SIZE":"LARGE","TLE_LINE1":"1 52332U 22045B   22292.55897720 -.00000414  00000-0 -78856-5 0  9998","MEAN_ELEMENT_THEORY":"SGP4","RA_OF_ASC_NODE":"2.8096","NORAD_CAT_ID":"52332","CLASSIFICATION_TYPE":"U","COUNTRY_CODE":"US","ARG_OF_PERICENTER":"29.2181","GP_ID":"215622229","BSTAR":"-0.00000788560000"},{"FILE":"3623062","REF_FRAME":"TEME","OBJECT_TYPE":"PAYLOAD","CENTER_NAME":"EARTH","ELEMENT_SET_NO":"999","LAUNCH_DATE":"2022-04-29","MEAN_MOTION":"15.08839695","TIME_SYSTEM":"UTC","MEAN_MOTION_DOT":"0.00001401","APOAPSIS":"541.421","OBJECT_ID":"2022-045C","MEAN_ANOMALY":"328.2576","OBJECT_NAME":"STARLINK-3847","PERIOD":"95.438","PERIAPSIS":"538.072","TLE_LINE2":"2 52333  53.2181   3.1231 0002421  31.8563 328.2576 15.08839695 28853","MEAN_MOTION_DDOT":"0.0000000000000","DECAY_DATE":null,"SEMIMAJOR_AXIS":"6917.881","REV_AT_EPOCH":"2885","INCLINATION":"53.2181","ECCENTRICITY":"0.00024210","EPHEMERIS_TYPE":"0","EPOCH":"2022-10-19T11:44:15.442368","TLE_LINE1":"1 52333U 22045C   22292.48906762  .00001401  00000-0  10614-3 0  9999","MEAN_ELEMENT_THEORY":"SGP4","RA_OF_ASC_NODE":"3.1231","RCS_SIZE":"LARGE","SITE":"AFETR","GP_ID":"215581444","BSTAR":"0.00010614000000","ARG_OF_PERICENTER":"31.8563","COUNTRY_CODE":"US","NORAD_CAT_ID":"52333","CLASSIFICATION_TYPE":"U"},{"MEAN_MOTION":"15.08838381","TIME_SYSTEM":"UTC","FILE":"3623062","OBJECT_TYPE":"PAYLOAD","REF_FRAME":"TEME","CENTER_NAME":"EARTH","ELEMENT_SET_NO":"999","LAUNCH_DATE":"2022-04-29","PERIOD":"95.438","PERIAPSIS":"537.928","TLE_LINE2":"2 52334  53.2182   3.1876 0002634  28.1304 331.9830 15.08838381 28853","MEAN_MOTION_DDOT":"0.0000000000000","MEAN_MOTION_DOT":"0.00000838","OBJECT_ID":"2022-045D","APOAPSIS":"541.573","MEAN_ANOMALY":"331.9830","OBJECT_NAME":"STARLINK-3880","EPHEMERIS_TYPE":"0","ECCENTRICITY":"0.00026340","EPOCH":"2022-10-19T11:28:21.298656","DECAY_DATE":null,"SEMIMAJOR_AXIS":"6917.885","REV_AT_EPOCH":"2885","INCLINATION":"53.2182","GP_ID":"215582696","BSTAR":"0.00007078200000","COUNTRY_CODE":"US","ARG_OF_PERICENTER":"28.1304","NORAD_CAT_ID":"52334","CLASSIFICATION_TYPE":"U","TLE_LINE1":"1 52334U 22045D   22292.47802429  .00000838  00000-0  70782-4 0  9990","RA_OF_ASC_NODE":"3.1876","MEAN_ELEMENT_THEORY":"SGP4","RCS_SIZE":"LARGE","SITE":"AFETR"},{"CLASSIFICATION_TYPE":"U","NORAD_CAT_ID":"52335","ARG_OF_PERICENTER":"26.5888","COUNTRY_CODE":"US","BSTAR":"0.00033133000000","GP_ID":"215582947","SITE":"AFETR","RCS_SIZE":"LARGE","RA_OF_ASC_NODE":"3.2114","MEAN_ELEMENT_THEORY":"SGP4","TLE_LINE1":"1 52335U 22045E   22292.47434580  .00004991  00000-0  33133-3 0  9992","EPOCH":"2022-10-19T11:23:03.477120","ECCENTRICITY":"0.00028870","EPHEMERIS_TYPE":"0","INCLINATION":"53.2171","REV_AT_EPOCH":"2886","DECAY_DATE":null,"SEMIMAJOR_AXIS":"6917.844","MEAN_MOTION_DDOT":"0.0000000000000","TLE_LINE2":"2 52335  53.2171   3.2114 0002887  26.5888 333.5252 15.08852063 28867","PERIOD":"95.437","PERIAPSIS":"537.711","OBJECT_NAME":"STARLINK-3814","MEAN_ANOMALY":"333.5252","OBJECT_ID":"2022-045E","APOAPSIS":"541.706","MEAN_MOTION_DOT":"0.00004991","TIME_SYSTEM":"UTC","MEAN_MOTION":"15.08852063","LAUNCH_DATE":"2022-04-29","ELEMENT_SET_NO":"999","CENTER_NAME":"EARTH","REF_FRAME":"TEME","OBJECT_TYPE":"PAYLOAD","FILE":"3623062"},{"REV_AT_EPOCH":"2887","SEMIMAJOR_AXIS":"6917.874","DECAY_DATE":null,"INCLINATION":"53.2185","EPOCH":"2022-10-19T12:49:12.186048","EPHEMERIS_TYPE":"0","ECCENTRICITY":"0.00022900","SITE":"AFETR","RCS_SIZE":"LARGE","TLE_LINE1":"1 52336U 22045F   22292.53416882  .00001340  00000-0  10231-3 0  9994","RA_OF_ASC_NODE":"2.9417","MEAN_ELEMENT_THEORY":"SGP4","NORAD_CAT_ID":"52336","CLASSIFICATION_TYPE":"U","ARG_OF_PERICENTER":"40.0874","COUNTRY_CODE":"US","GP_ID":"215622729","BSTAR":"0.00010231000000","ELEMENT_SET_NO":"999","LAUNCH_DATE":"2022-04-29","REF_FRAME":"TEME","OBJECT_TYPE":"PAYLOAD","FILE":"3623738","CENTER_NAME":"EARTH","MEAN_MOTION":"15.08842200","TIME_SYSTEM":"UTC","APOAPSIS":"541.323","OBJECT_ID":"2022-045F","OBJECT_NAME":"STARLINK-3823","MEAN_ANOMALY":"320.0287","MEAN_MOTION_DOT":"0.00001340","MEAN_MOTION_DDOT":"0.0000000000000","PERIOD":"95.437","PERIAPSIS":"538.154","TLE_LINE2":"2 52336  53.2185   2.9417 0002290  40.0874 320.0287 15.08842200 28871"},{"MEAN_MOTION":"15.08842448","TIME_SYSTEM":"UTC","ELEMENT_SET_NO":"999","LAUNCH_DATE":"2022-04-29","OBJECT_TYPE":"PAYLOAD","REF_FRAME":"TEME","FILE":"3623062","CENTER_NAME":"EARTH","MEAN_MOTION_DDOT":"0.0000000000000","PERIOD":"95.437","PERIAPSIS":"537.744","TLE_LINE2":"2 52337  53.2169   3.1425 0002882  28.1714 331.9433 15.08842448 28860","OBJECT_ID":"2022-045G","APOAPSIS":"541.732","OBJECT_NAME":"STARLINK-3797","MEAN_ANOMALY":"331.9433","MEAN_MOTION_DOT":"0.00002391","EPOCH":"2022-10-19T11:38:57.083424","EPHEMERIS_TYPE":"0","ECCENTRICITY":"0.00028820","REV_AT_EPOCH":"2886","DECAY_DATE":null,"SEMIMAJOR_AXIS":"6917.873","INCLINATION":"53.2169","CLASSIFICATION_TYPE":"U","NORAD_CAT_ID":"52337","COUNTRY_CODE":"US","ARG_OF_PERICENTER":"28.1714","BSTAR":"0.00016828000000","GP_ID":"215581944","SITE":"AFETR","RCS_SIZE":"LARGE","TLE_LINE1":"1 52337U 22045G   22292.48538291  .00002391  00000-0  16828-3 0  9993","MEAN_ELEMENT_THEORY":"SGP4","RA_OF_ASC_NODE":"3.1425"},{"MEAN_MOTION":"15.08838053","TIME_SYSTEM":"UTC","OBJECT_TYPE":"PAYLOAD","REF_FRAME":"TEME","FILE":"3623738","CENTER_NAME":"EARTH","ELEMENT_SET_NO":"999","LAUNCH_DATE":"2022-04-29","PERIAPSIS":"537.865","PERIOD":"95.438","TLE_LINE2":"2 52338  53.2193   2.6932 0002727  24.9058 335.2065 15.08838053 28885","MEAN_MOTION_DDOT":"0.0000000000000","MEAN_MOTION_DOT":"0.00001848","APOAPSIS":"541.638","OBJECT_ID":"2022-045H","OBJECT_NAME":"STARLINK-3815","MEAN_ANOMALY":"335.2065","EPOCH":"2022-10-19T14:08:42.197856","ECCENTRICITY":"0.00027270","EPHEMERIS_TYPE":"0","REV_AT_EPOCH":"2888","DECAY_DATE":null,"SEMIMAJOR_AXIS":"6917.886","INCLINATION":"53.2193","BSTAR":"0.00013423000000","GP_ID":"215623727","NORAD_CAT_ID":"52338","CLASSIFICATION_TYPE":"U","COUNTRY_CODE":"US","ARG_OF_PERICENTER":"24.9058","TLE_LINE1":"1 52338U 22045H   22292.58937729  .00001848  00000-0  13423-3 0  9998","RA_OF_ASC_NODE":"2.6932","MEAN_ELEMENT_THEORY":"SGP4","SITE":"AFETR","RCS_SIZE":"LARGE"},{"APOAPSIS":"541.622","OBJECT_ID":"2022-045J","MEAN_ANOMALY":"329.5258","OBJECT_NAME":"STARLINK-3792","MEAN_MOTION_DOT":"0.00001768","MEAN_MOTION_DDOT":"0.0000000000000","PERIOD":"95.438","PERIAPSIS":"537.917","TLE_LINE2":"2 52339  53.2183   2.6789 0002678  30.5890 329.5258 15.08832056 28884","ELEMENT_SET_NO":"999","LAUNCH_DATE":"2022-04-29","FILE":"3623738","REF_FRAME":"TEME","OBJECT_TYPE":"PAYLOAD","CENTER_NAME":"EARTH","MEAN_MOTION":"15.08832056","TIME_SYSTEM":"UTC","RCS_SIZE":"LARGE","SITE":"AFETR","TLE_LINE1":"1 52339U 22045J   22292.59305696  .00001768  00000-0  12917-3 0  9990","RA_OF_ASC_NODE":"2.6789","MEAN_ELEMENT_THEORY":"SGP4","COUNTRY_CODE":"US","ARG_OF_PERICENTER":"30.5890","CLASSIFICATION_TYPE":"U","NORAD_CAT_ID":"52339","GP_ID":"215621980","BSTAR":"0.00012917000000","DECAY_DATE":null,"SEMIMAJOR_AXIS":"6917.905","REV_AT_EPOCH":"2888","INCLINATION":"53.2183","EPHEMERIS_TYPE":"0","ECCENTRICITY":"0.00026780","EPOCH":"2022-10-19T14:14:00.121344"},{"EPOCH":"2022-10-19T13:20:58.008480","EPHEMERIS_TYPE":"0","ECCENTRICITY":"0.00025890","INCLINATION":"53.2179","REV_AT_EPOCH":"2900","SEMIMAJOR_AXIS":"6917.912","DECAY_DATE":null,"GP_ID":"215622230","BSTAR":"-0.00001637900000","CLASSIFICATION_TYPE":"U","NORAD_CAT_ID":"52340","COUNTRY_CODE":"US","ARG_OF_PERICENTER":"29.3038","MEAN_ELEMENT_THEORY":"SGP4","RA_OF_ASC_NODE":"352.8214","TLE_LINE1":"1 52340U 22045K   22292.55622695 -.00000549  00000-0 -16379-4 0  9994","SITE":"AFETR","RCS_SIZE":"LARGE","TIME_SYSTEM":"UTC","MEAN_MOTION":"15.08829643","CENTER_NAME":"EARTH","OBJECT_TYPE":"PAYLOAD","REF_FRAME":"TEME","FILE":"3623738","LAUNCH_DATE":"2022-04-29","ELEMENT_SET_NO":"999","TLE_LINE2":"2 52340  53.2179 352.8214 0002589  29.3038 330.8098 15.08829643 29005","PERIOD":"95.438","PERIAPSIS":"537.986","MEAN_MOTION_DDOT":"0.0000000000000","MEAN_MOTION_DOT":"-0.00000549","OBJECT_NAME":"STARLINK-3818","MEAN_ANOMALY":"330.8098","APOAPSIS":"541.568","OBJECT_ID":"2022-045K"}];
